{
    "links": {
        "self": "http://www.neowsapp.com/rest/v1/neo/3601614?api_key=iIulBulltgU6a56xZRHN4H3l9WmuAYTsLGpBGhQ2"
    },
    "id": "3601614",
    "neo_reference_id": "3601614",
    "name": "(2012 FV23)",
    "designation": "2012 FV23",
    "nasa_jpl_url": "http://ssd.jpl.nasa.gov/sbdb.cgi?sstr=3601614",
    "absolute_magnitude_h": 25.4,
    "estimated_diameter": {
        "kilometers": {
            "estimated_diameter_min": 0.022108281,
            "estimated_diameter_max": 0.0494356193
        },
        "meters": {
            "estimated_diameter_min": 22.1082810359,
            "estimated_diameter_max": 49.435619262
        },
        "miles": {
            "estimated_diameter_min": 0.0137374447,
            "estimated_diameter_max": 0.0307178602
        },
        "feet": {
            "estimated_diameter_min": 72.5337327539,
            "estimated_diameter_max": 162.1903570994
        }
    },
    "is_potentially_hazardous_asteroid": false,
    "close_approach_data": [
        {
            "close_approach_date": "2006-02-10",
            "close_approach_date_full": "2006-Feb-10 06:29",
            "epoch_date_close_approach": 1139552940000,
            "relative_velocity": {
                "kilometers_per_second": "12.0148722674",
                "kilometers_per_hour": "43253.540162703",
                "miles_per_hour": "26876.0677749862"
            },
            "miss_distance": {
                "astronomical": "0.0937902283",
                "lunar": "36.4843988087",
                "kilometers": "14030818.380493721",
                "miles": "8718346.2665505098"
            },
            "orbiting_body": "Mars"
        },
        {
            "close_approach_date": "2010-06-19",
            "close_approach_date_full": "2010-Jun-19 08:58",
            "epoch_date_close_approach": 1276937880000,
            "relative_velocity": {
                "kilometers_per_second": "13.6536618089",
                "kilometers_per_hour": "49153.1825121563",
                "miles_per_hour": "30541.8761004007"
            },
            "miss_distance": {
                "astronomical": "0.241122825",
                "lunar": "93.796778925",
                "kilometers": "36071461.02838275",
                "miles": "22413766.54287195"
            },
            "orbiting_body": "Earth"
        },
        {
            "close_approach_date": "2012-03-30",
            "close_approach_date_full": "2012-Mar-30 06:33",
            "epoch_date_close_approach": 1333089180000,
            "relative_velocity": {
                "kilometers_per_second": "6.1911776892",
                "kilometers_per_hour": "22288.239680961",
                "miles_per_hour": "13849.0453728727"
            },
            "miss_distance": {
                "astronomical": "0.0169841094",
                "lunar": "6.6068185566",
                "kilometers": "2540786.590086978",
                "miles": "1578771.5784691764"
            },
            "orbiting_body": "Earth"
        },
        {
            "close_approach_date": "2014-02-19",
            "close_approach_date_full": "2014-Feb-19 22:48",
            "epoch_date_close_approach": 1392850080000,
            "relative_velocity": {
                "kilometers_per_second": "19.15703347",
                "kilometers_per_hour": "68965.3204919219",
                "miles_per_hour": "42852.3681689945"
            },
            "miss_distance": {
                "astronomical": "0.4248008628",
                "lunar": "165.2475356292",
                "kilometers": "63549304.249042236",
                "miles": "39487706.5910694168"
            },
            "orbiting_body": "Earth"
        }
    ],
    "orbital_data": {
        "orbit_id": "7",
        "orbit_determination_date": "2017-04-06 08:50:23",
        "first_observation_date": "2012-03-23",
        "last_observation_date": "2012-03-29",
        "data_arc_in_days": 6,
        "observations_used": 27,
        "orbit_uncertainty": "7",
        "minimum_orbit_intersection": ".00510346",
        "jupiter_tisserand_invariant": "4.372",
        "epoch_osculation": "2459000.5",
        "eccentricity": ".3669707866227095",
        "semi_major_axis": "1.550348235905944",
        "inclination": "1.074266705554612",
        "ascending_node_longitude": "74.61893254134512",
        "orbital_period": "705.0863644502708",
        "perihelion_distance": ".9814157242364097",
        "perihelion_argument": "136.6784339674931",
        "aphelion_distance": "2.119280747575478",
        "perihelion_time": "2458855.341074778680",
        "mean_anomaly": "74.11462724912892",
        "mean_motion": ".5105757509304245",
        "equinox": "J2000",
        "orbit_class": {
            "orbit_class_type": "APO",
            "orbit_class_description": "Near-Earth asteroid orbits which cross the Earth’s orbit similar to that of 1862 Apollo",
            "orbit_class_range": "a (semi-major axis) > 1.0 AU; q (perihelion) < 1.017 AU"
        }
    },
    "is_sentry_object": false
}